[{"OBJECT_NAME":"ONEWEB-0113","OBJECT_ID":"2021-025J","EPOCH":"2026-02-14T06:15:20.611008","MEAN_MOTION":13.13950652,"ECCENTRICITY":0.00016871,"INCLINATION":87.904,"RA_OF_ASC_NODE":344.5891,"ARG_OF_PERICENTER":36.7416,"MEAN_ANOMALY":323.3829,"EPHEMERIS_TYPE":0,"CLASSIFICATION_TYPE":"U","NORAD_CAT_ID":48050,"ELEMENT_SET_NO":999,"REV_AT_EPOCH":23746,"BSTAR":-0.0081124467,"MEAN_MOTION_DOT":-2.97e-5,"MEAN_MOTION_DDOT":0},{"OBJECT_NAME":"ONEWEB-0112","OBJECT_ID":"2021-025K","EPOCH":"2026-02-14T05:38:42.815328","MEAN_MOTION":13.13471695,"ECCENTRICITY":0.00018194,"INCLINATION":87.9045,"RA_OF_ASC_NODE":344.6418,"ARG_OF_PERICENTER":87.6893,"MEAN_ANOMALY":272.4444,"EPHEMERIS_TYPE":0,"CLASSIFICATION_TYPE":"U","NORAD_CAT_ID":48051,"ELEMENT_SET_NO":999,"REV_AT_EPOCH":23745,"BSTAR":-0.00053249376,"MEAN_MOTION_DOT":-1.82e-6,"MEAN_MOTION_DDOT":0},{"OBJECT_NAME":"ONEWEB-0156","OBJECT_ID":"2021-025L","EPOCH":"2026-02-14T05:50:54.839328","MEAN_MOTION":13.13470898,"ECCENTRICITY":0.00019615,"INCLINATION":87.9045,"RA_OF_ASC_NODE":344.6514,"ARG_OF_PERICENTER":80.3773,"MEAN_ANOMALY":279.7578,"EPHEMERIS_TYPE":0,"CLASSIFICATION_TYPE":"U","NORAD_CAT_ID":48052,"ELEMENT_SET_NO":999,"REV_AT_EPOCH":23743,"BSTAR":-0.00063255943,"MEAN_MOTION_DOT":-2.18e-6,"MEAN_MOTION_DDOT":0},{"OBJECT_NAME":"ONEWEB-0161","OBJECT_ID":"2021-025M","EPOCH":"2026-02-14T05:14:21.882048","MEAN_MOTION":13.1347026,"ECCENTRICITY":0.0001992,"INCLINATION":87.9038,"RA_OF_ASC_NODE":344.6675,"ARG_OF_PERICENTER":78.9934,"MEAN_ANOMALY":281.1419,"EPHEMERIS_TYPE":0,"CLASSIFICATION_TYPE":"U","NORAD_CAT_ID":48053,"ELEMENT_SET_NO":999,"REV_AT_EPOCH":23736,"BSTAR":0.00033226413,"MEAN_MOTION_DOT":1.34e-6,"MEAN_MOTION_DDOT":0},{"OBJECT_NAME":"ONEWEB-0158","OBJECT_ID":"2021-025N","EPOCH":"2026-02-14T06:05:32.203680","MEAN_MOTION":13.13472365,"ECCENTRICITY":0.00015062,"INCLINATION":87.9043,"RA_OF_ASC_NODE":344.6494,"ARG_OF_PERICENTER":78.366,"MEAN_ANOMALY":281.7638,"EPHEMERIS_TYPE":0,"CLASSIFICATION_TYPE":"U","NORAD_CAT_ID":48054,"ELEMENT_SET_NO":999,"REV_AT_EPOCH":23749,"BSTAR":-6.9912217e-5,"MEAN_MOTION_DOT":-1.3e-7,"MEAN_MOTION_DDOT":0},{"OBJECT_NAME":"ONEWEB-0157","OBJECT_ID":"2021-025P","EPOCH":"2026-02-14T06:42:05.851296","MEAN_MOTION":13.13472143,"ECCENTRICITY":0.00021211,"INCLINATION":87.9047,"RA_OF_ASC_NODE":344.6491,"ARG_OF_PERICENTER":87.4728,"MEAN_ANOMALY":272.6644,"EPHEMERIS_TYPE":0,"CLASSIFICATION_TYPE":"U","NORAD_CAT_ID":48055,"ELEMENT_SET_NO":999,"REV_AT_EPOCH":23743,"BSTAR":0.001121889,"MEAN_MOTION_DOT":4.22e-6,"MEAN_MOTION_DDOT":0},{"OBJECT_NAME":"ONEWEB-0162","OBJECT_ID":"2021-025Q","EPOCH":"2026-02-14T06:07:47.914752","MEAN_MOTION":13.13470974,"ECCENTRICITY":0.00019607,"INCLINATION":87.9043,"RA_OF_ASC_NODE":344.6582,"ARG_OF_PERICENTER":75.8611,"MEAN_ANOMALY":284.2736,"EPHEMERIS_TYPE":0,"CLASSIFICATION_TYPE":"U","NORAD_CAT_ID":48056,"ELEMENT_SET_NO":999,"REV_AT_EPOCH":23740,"BSTAR":7.2470906e-5,"MEAN_MOTION_DOT":3.9e-7,"MEAN_MOTION_DDOT":0},{"OBJECT_NAME":"ONEWEB-0155","OBJECT_ID":"2021-025R","EPOCH":"2026-02-14T06:17:44.124000","MEAN_MOTION":13.1347062,"ECCENTRICITY":0.00018607,"INCLINATION":87.9034,"RA_OF_ASC_NODE":344.6579,"ARG_OF_PERICENTER":85.7566,"MEAN_ANOMALY":274.3776,"EPHEMERIS_TYPE":0,"CLASSIFICATION_TYPE":"U","NORAD_CAT_ID":48057,"ELEMENT_SET_NO":999,"REV_AT_EPOCH":23754,"BSTAR":0.00054851109,"MEAN_MOTION_DOT":2.13e-6,"MEAN_MOTION_DDOT":0},{"OBJECT_NAME":"ONEWEB-0149","OBJECT_ID":"2021-025S","EPOCH":"2026-02-14T06:49:25.358592","MEAN_MOTION":13.13471492,"ECCENTRICITY":0.00019499,"INCLINATION":87.904,"RA_OF_ASC_NODE":344.6491,"ARG_OF_PERICENTER":74.8529,"MEAN_ANOMALY":285.2816,"EPHEMERIS_TYPE":0,"CLASSIFICATION_TYPE":"U","NORAD_CAT_ID":48058,"ELEMENT_SET_NO":999,"REV_AT_EPOCH":23735,"BSTAR":0.00089103517,"MEAN_MOTION_DOT":3.38e-6,"MEAN_MOTION_DDOT":0},{"OBJECT_NAME":"ONEWEB-0148","OBJECT_ID":"2021-025T","EPOCH":"2026-02-14T05:55:47.889984","MEAN_MOTION":13.13469115,"ECCENTRICITY":0.0002384,"INCLINATION":87.9035,"RA_OF_ASC_NODE":344.6718,"ARG_OF_PERICENTER":73.3305,"MEAN_ANOMALY":286.8086,"EPHEMERIS_TYPE":0,"CLASSIFICATION_TYPE":"U","NORAD_CAT_ID":48059,"ELEMENT_SET_NO":999,"REV_AT_EPOCH":23747,"BSTAR":-0.00029526897,"MEAN_MOTION_DOT":-9.5e-7,"MEAN_MOTION_DDOT":0},{"OBJECT_NAME":"ONEWEB-0160","OBJECT_ID":"2021-025U","EPOCH":"2026-02-14T06:20:09.156768","MEAN_MOTION":13.13472562,"ECCENTRICITY":0.00012211,"INCLINATION":87.9032,"RA_OF_ASC_NODE":344.6657,"ARG_OF_PERICENTER":61.3323,"MEAN_ANOMALY":298.7929,"EPHEMERIS_TYPE":0,"CLASSIFICATION_TYPE":"U","NORAD_CAT_ID":48060,"ELEMENT_SET_NO":999,"REV_AT_EPOCH":23742,"BSTAR":0.0005858938,"MEAN_MOTION_DOT":2.27e-6,"MEAN_MOTION_DDOT":0},{"OBJECT_NAME":"ONEWEB-0163","OBJECT_ID":"2021-025V","EPOCH":"2026-02-14T05:58:14.150496","MEAN_MOTION":13.13470423,"ECCENTRICITY":0.00020459,"INCLINATION":87.9037,"RA_OF_ASC_NODE":344.6598,"ARG_OF_PERICENTER":85.4308,"MEAN_ANOMALY":274.7055,"EPHEMERIS_TYPE":0,"CLASSIFICATION_TYPE":"U","NORAD_CAT_ID":48061,"ELEMENT_SET_NO":999,"REV_AT_EPOCH":23754,"BSTAR":-0.00036932592,"MEAN_MOTION_DOT":-1.22e-6,"MEAN_MOTION_DDOT":0},{"OBJECT_NAME":"ONEWEB-0159","OBJECT_ID":"2021-025W","EPOCH":"2026-02-14T05:46:02.117856","MEAN_MOTION":13.1347187,"ECCENTRICITY":0.0002061,"INCLINATION":87.9044,"RA_OF_ASC_NODE":344.6464,"ARG_OF_PERICENTER":80.6906,"MEAN_ANOMALY":279.4456,"EPHEMERIS_TYPE":0,"CLASSIFICATION_TYPE":"U","NORAD_CAT_ID":48062,"ELEMENT_SET_NO":999,"REV_AT_EPOCH":23746,"BSTAR":-0.00066495809,"MEAN_MOTION_DOT":-2.3e-6,"MEAN_MOTION_DDOT":0},{"OBJECT_NAME":"ONEWEB-0164","OBJECT_ID":"2021-025X","EPOCH":"2026-02-14T05:19:13.523520","MEAN_MOTION":13.13469525,"ECCENTRICITY":0.00017346,"INCLINATION":87.9048,"RA_OF_ASC_NODE":344.6565,"ARG_OF_PERICENTER":77.7755,"MEAN_ANOMALY":282.3569,"EPHEMERIS_TYPE":0,"CLASSIFICATION_TYPE":"U","NORAD_CAT_ID":48063,"ELEMENT_SET_NO":999,"REV_AT_EPOCH":23744,"BSTAR":8.7958066e-5,"MEAN_MOTION_DOT":4.5e-7,"MEAN_MOTION_DDOT":0},{"OBJECT_NAME":"ONEWEB-0167","OBJECT_ID":"2021-025Y","EPOCH":"2026-02-14T05:59:27.084192","MEAN_MOTION":13.13469918,"ECCENTRICITY":0.00018982,"INCLINATION":87.9033,"RA_OF_ASC_NODE":344.6728,"ARG_OF_PERICENTER":101.9735,"MEAN_ANOMALY":258.1607,"EPHEMERIS_TYPE":0,"CLASSIFICATION_TYPE":"U","NORAD_CAT_ID":48064,"ELEMENT_SET_NO":999,"REV_AT_EPOCH":23743,"BSTAR":-0.00035162436,"MEAN_MOTION_DOT":-1.16e-6,"MEAN_MOTION_DDOT":0},{"OBJECT_NAME":"ONEWEB-0166","OBJECT_ID":"2021-025Z","EPOCH":"2026-02-14T06:32:20.793696","MEAN_MOTION":13.13472712,"ECCENTRICITY":0.00019825,"INCLINATION":87.9047,"RA_OF_ASC_NODE":344.6286,"ARG_OF_PERICENTER":77.731,"MEAN_ANOMALY":282.4041,"EPHEMERIS_TYPE":0,"CLASSIFICATION_TYPE":"U","NORAD_CAT_ID":48065,"ELEMENT_SET_NO":999,"REV_AT_EPOCH":23751,"BSTAR":0.0010507341,"MEAN_MOTION_DOT":3.96e-6,"MEAN_MOTION_DDOT":0}]
