ONEWEB-0113             
1 48050U 21025J   26045.26065522 -.00002970  00000+0 -81124-2 0  9999
2 48050  87.9040 344.5891 0001687  36.7416 323.3829 13.13950652237467
ONEWEB-0112             
1 48051U 21025K   26045.23521777 -.00000182  00000+0 -53249-3 0  9997
2 48051  87.9045 344.6418 0001819  87.6893 272.4444 13.13471695237451
ONEWEB-0156             
1 48052U 21025L   26045.24369027 -.00000218  00000+0 -63256-3 0  9996
2 48052  87.9045 344.6514 0001961  80.3773 279.7578 13.13470898237434
ONEWEB-0161             
1 48053U 21025M   26045.21830882  .00000134  00000+0  33226-3 0  9995
2 48053  87.9038 344.6675 0001992  78.9934 281.1419 13.13470260237367
ONEWEB-0158             
1 48054U 21025N   26045.25384495 -.00000013  00000+0 -69912-4 0  9994
2 48054  87.9043 344.6494 0001506  78.3660 281.7638 13.13472365237495
ONEWEB-0157             
1 48055U 21025P   26045.27923439  .00000422  00000+0  11219-2 0  9991
2 48055  87.9047 344.6491 0002121  87.4728 272.6644 13.13472143237431
ONEWEB-0162             
1 48056U 21025Q   26045.25541568  .00000039  00000+0  72471-4 0  9992
2 48056  87.9043 344.6582 0001960  75.8611 284.2736 13.13470974237409
ONEWEB-0155             
1 48057U 21025R   26045.26231625  .00000213  00000+0  54851-3 0  9999
2 48057  87.9034 344.6579 0001860  85.7566 274.3776 13.13470620237541
ONEWEB-0149             
1 48058U 21025S   26045.28432128  .00000338  00000+0  89104-3 0  9990
2 48058  87.9040 344.6491 0001949  74.8529 285.2816 13.13471492237351
ONEWEB-0148             
1 48059U 21025T   26045.24708206 -.00000095  00000+0 -29527-3 0  9995
2 48059  87.9035 344.6718 0002384  73.3305 286.8086 13.13469115237476
ONEWEB-0160             
1 48060U 21025U   26045.26399487  .00000227  00000+0  58589-3 0  9991
2 48060  87.9032 344.6657 0001221  61.3323 298.7929 13.13472562237426
ONEWEB-0163             
1 48061U 21025V   26045.24877489 -.00000122  00000+0 -36933-3 0  9998
2 48061  87.9037 344.6598 0002045  85.4308 274.7055 13.13470423237542
ONEWEB-0159             
1 48062U 21025W   26045.24030229 -.00000230  00000+0 -66496-3 0  9999
2 48062  87.9044 344.6464 0002061  80.6906 279.4456 13.13471870237467
ONEWEB-0164             
1 48063U 21025X   26045.22168430  .00000045  00000+0  87958-4 0  9993
2 48063  87.9048 344.6565 0001734  77.7755 282.3569 13.13469525237449
ONEWEB-0167             
1 48064U 21025Y   26045.24961903 -.00000116  00000+0 -35162-3 0  9992
2 48064  87.9033 344.6728 0001898 101.9735 258.1607 13.13469918237433
ONEWEB-0166             
1 48065U 21025Z   26045.27246289  .00000396  00000+0  10507-2 0  9992
2 48065  87.9047 344.6286 0001982  77.7310 282.4041 13.13472712237518
